[{"OBJECT_NAME":"GNOMES-1","OBJECT_ID":"2020-059B","EPOCH":"2026-03-09T12:56:23.998560","MEAN_MOTION":14.99848479,"ECCENTRICITY":0.00054513,"INCLINATION":97.8057,"RA_OF_ASC_NODE":278.776,"ARG_OF_PERICENTER":357.8604,"MEAN_ANOMALY":2.2595,"EPHEMERIS_TYPE":0,"CLASSIFICATION_TYPE":"U","NORAD_CAT_ID":46266,"ELEMENT_SET_NO":999,"REV_AT_EPOCH":30065,"BSTAR":0.00033421547,"MEAN_MOTION_DOT":4.08e-5,"MEAN_MOTION_DDOT":0},{"OBJECT_NAME":"STARLINK-5597","OBJECT_ID":"2023-014N","EPOCH":"2026-03-09T09:48:39.170016","MEAN_MOTION":14.98331021,"ECCENTRICITY":0.00034374,"INCLINATION":69.9996,"RA_OF_ASC_NODE":65.1544,"ARG_OF_PERICENTER":268.5809,"MEAN_ANOMALY":91.4956,"EPHEMERIS_TYPE":0,"CLASSIFICATION_TYPE":"U","NORAD_CAT_ID":55403,"ELEMENT_SET_NO":999,"REV_AT_EPOCH":17201,"BSTAR":1.9205784e-5,"MEAN_MOTION_DOT":1.36e-6,"MEAN_MOTION_DDOT":0}]
